0 COSMOS 2401
1 27869U 03037B   13282.30647939  .00000024  00000-0  10000-3 0  5325
2 27869 082.4726 353.5745 0023847 117.5243 242.8264 12.45431553461060
0 COSMOS 2401
1 27869U 03037B   13282.78847619  .00000024  00000-0  10000-3 0  5335
2 27869 082.4725 353.2721 0023888 116.5294 243.8241 12.45431546461125
0 COSMOS 2401
1 27869U 03037B   13283.02947448  .00000024  00000-0  10000-3 0  5345
2 27869 082.4726 353.1211 0023884 115.9924 244.3620 12.45431551461154
0 COSMOS 2401
1 27869U 03037B   13283.27047280  .00000024  00000-0  10000-3 0  5358
2 27869 082.4726 352.9700 0023901 115.4842 244.8710 12.45431541461185
0 COSMOS 2401
1 27869U 03037B   13283.75246966  .00000024  00000-0  10000-3 0  5353
2 27869 082.4727 352.6678 0023886 114.4195 245.9382 12.45431531461242
0 COSMOS 2401
1 27869U 03037B   13283.99346797  .00000024  00000-0  10000-3 0  5363
2 27869 082.4725 352.5167 0023897 113.9249 246.4340 12.45431531461271
0 COSMOS 2401
1 27869U 03037B   13284.31479893  .00000024  00000-0  10000-3 0  5375
2 27869 082.4727 352.3152 0023878 113.2284 247.1316 12.45431556461319
0 COSMOS 2401
1 27869U 03037B   13285.27879168  .00000024  00000-0  10000-3 0  5404
2 27869 082.4735 351.7110 0023869 111.0846 249.2791 12.45431644461436
0 COSMOS 2401
1 27869U 03037B   13285.68045542  .00000024  00000-0  10000-3 0  5411
2 27869 082.4733 351.4589 0023885 110.2630 250.1025 12.45431658461482
0 COSMOS 2401
1 27869U 03037B   13286.16245188  .00000024  00000-0  10000-3 0  5424
2 27869 082.4731 351.1564 0023897 109.1851 251.1820 12.45431666461545
0 COSMOS 2401
1 27869U 03037B   13286.56411546  .00000024  00000-0  10000-3 0  5432
2 27869 082.4728 350.9045 0023915 108.3450 252.0236 12.45431707461591
0 COSMOS 2401
1 27869U 03037B   13286.64444818  .00000024  00000-0  10000-3 0  5440
2 27869 082.4729 350.8543 0023910 108.1700 252.1986 12.45431703461606
0 COSMOS 2401
1 27869U 03037B   13287.04611191  .00000024  00000-0  10000-3 0  5456
2 27869 082.4727 350.6024 0023911 107.2627 253.1070 12.45431701461653
0 COSMOS 2401
1 27869U 03037B   13287.44777550  .00000024  00000-0  10000-3 0  5463
2 27869 082.4728 350.3503 0023906 106.4325 253.9383 12.45431729461704
0 COSMOS 2401
1 27869U 03037B   13287.76910636  .00000024  00000-0  10000-3 0  5473
2 27869 082.4724 350.1480 0023901 105.7074 254.6647 12.45431758461747
0 COSMOS 2401
1 27869U 03037B   13288.01010452  .00000024  00000-0  10000-3 0  5480
2 27869 082.4722 349.9969 0023910 105.2182 255.1546 12.45431769461777
0 COSMOS 2401
1 27869U 03037B   13288.49210086  .00000024  00000-0  10000-3 0  5498
2 27869 082.4729 349.6948 0023934 104.1772 256.1971 12.45431796461837
0 COSMOS 2401
1 27869U 03037B   13288.57243357  .00000024  00000-0  10000-3 0  5506
2 27869 082.4728 349.6444 0023935 104.0106 256.3638 12.45431797461842
0 COSMOS 2401
1 27869U 03037B   13289.13476277  .00000024  00000-0  10000-3 0  5519
2 27869 082.4728 349.2919 0023944 102.7310 257.6450 12.45431789461912
0 COSMOS 2401
1 27869U 03037B   13289.45609358  .00000024  00000-0  10000-3 0  5523
2 27869 082.4728 349.0904 0023952 102.0967 258.2798 12.45431784461955
0 COSMOS 2401
1 27869U 03037B   13289.69709178  .00000024  00000-0  10000-3 0  5531
2 27869 082.4726 348.9392 0023934 101.5655 258.8115 12.45431787461985
0 COSMOS 2401
1 27869U 03037B   13289.77742450  .00000024  00000-0  10000-3 0  5541
2 27869 082.4726 348.8887 0023906 101.3998 258.9771 12.45431791461995
0 COSMOS 2401
1 27869U 03037B   13290.17908803  .00000024  00000-0  10000-3 0  5554
2 27869 082.4726 348.6368 0023904 100.5338 259.8440 12.45431808462043
0 COSMOS 2401
1 27869U 03037B   13290.66108421  .00000024  00000-0  10000-3 0  5567
2 27869 082.4726 348.3349 0023904 099.5245 260.8537 12.45431810462102
0 COSMOS 2401
1 27869U 03037B   13291.14308047  .00000024  00000-0  10000-3 0  5578
2 27869 082.4726 348.0331 0023909 098.4495 261.9291 12.45431804462168
0 COSMOS 2401
1 27869U 03037B   13291.54474457  .00000024  00000-0  10000-3 0  5582
2 27869 082.4728 347.7810 0023943 097.4505 262.9292 12.45431754462219
0 COSMOS 2401
1 27869U 03037B   13291.70541010  .00000024  00000-0  10000-3 0  5591
2 27869 082.4728 347.6801 0023930 097.1247 263.2553 12.45431739462233
0 COSMOS 2401
1 27869U 03037B   13291.78574287  .00000024  00000-0  10000-3 0  5603
2 27869 082.4727 347.6294 0023956 096.9864 263.3936 12.45431706462249
0 COSMOS 2401
1 27869U 03037B   13292.42840465  .00000024  00000-0  10000-3 0  5610
2 27869 082.4730 347.2263 0023937 095.6146 264.7659 12.45431679462328
0 COSMOS 2401
1 27869U 03037B   13292.83006821  .00000024  00000-0  10000-3 0  5626
2 27869 082.4727 346.9739 0023969 094.7676 265.6139 12.45431680462371
0 COSMOS 2401
1 27869U 03037B   13293.15139909  .00000024  00000-0  10000-3 0  5637
2 27869 082.4727 346.7725 0023966 094.0702 266.3119 12.45431683462418
0 COSMOS 2401
1 27869U 03037B   13293.55306261  .00000024  00000-0  10000-3 0  5649
2 27869 082.4731 346.5206 0023986 093.3401 267.0424 12.45431666462468
0 COSMOS 2401
1 27869U 03037B   13293.71372801  .00000024  00000-0  10000-3 0  5651
2 27869 082.4727 346.4194 0023985 093.0003 267.3823 12.45431660462484
0 COSMOS 2401
1 27869U 03037B   13293.79406071  .00000024  00000-0  10000-3 0  5667
2 27869 082.4726 346.3690 0023986 092.8296 267.5531 12.45431660462494
0 COSMOS 2401
1 27869U 03037B   13294.35638945  .00000024  00000-0  10000-3 0  5678
2 27869 082.4731 346.0164 0023973 091.6833 268.6993 12.45431671462567
0 COSMOS 2401
1 27869U 03037B   13294.67772021  .00000024  00000-0  10000-3 0  5688
2 27869 082.4730 345.8147 0023944 090.9083 269.4735 12.45431655462601
0 COSMOS 2401
1 27869U 03037B   13295.15971647  .00000024  00000-0  10000-3 0  5698
2 27869 082.4727 345.5120 0023956 089.8173 270.5648 12.45431646462667
0 COSMOS 2401
1 27869U 03037B   13295.56137990  .00000024  00000-0  10000-3 0  5700
2 27869 082.4727 345.2595 0023940 089.1429 271.2396 12.45431613462718
0 COSMOS 2401
1 27869U 03037B   13295.64171257  .00000024  00000-0  10000-3 0  5714
2 27869 082.4726 345.2090 0023945 088.9541 271.4284 12.45431616462726
0 COSMOS 2401
1 27869U 03037B   13296.12370865  .00000024  00000-0  10000-3 0  5725
2 27869 082.4729 344.9069 0024006 088.0306 272.3522 12.45431613462788
